BEIDOU-2 IGSO-1 (C06)   
1 36828U 10036A   24107.09773064 -.00000114  00000+0  00000+0 0  9992
2 36828  54.2443 170.1322 0040088 199.8970 333.3797  1.00245293 50264
BEIDOU-2 G4 (C04)       
1 37210U 10057A   24127.62949014 -.00000112  00000+0  00000+0 0  9990
2 37210   1.7471  68.1824 0003295 194.8241 348.6494  1.00271740 49555
BEIDOU-2 IGSO-2 (C07)   
1 37256U 10068A   24127.10628296 -.00000231  00000+0  00000+0 0  9993
2 37256  48.9582 281.3295 0033836 208.4487 240.5266  1.00263069 49057
BEIDOU-2 IGSO-3 (C08)   
1 37384U 11013A   24127.61529220 -.00000220  00000+0  00000+0 0  9997
2 37384  61.2954  47.5117 0025641 178.2029 329.2919  1.00268596 47920
BEIDOU-2 IGSO-4 (C09)   
1 37763U 11038A   24127.61767524  .00000011  00000+0  00000+0 0  9993
2 37763  54.5524 172.5431 0124507 228.5887 142.1498  1.00267464 46914
BEIDOU-2 IGSO-5 (C10)   
1 37948U 11073A   24127.15680954 -.00000175  00000+0  00000+0 0  9999
2 37948  49.0895 281.0125 0096067 218.8815 234.9289  1.00260580 45398
BEIDOU-2 G5 (C05)       
1 38091U 12008A   24127.13452081  .00000057  00000+0  00000+0 0  9992
2 38091   1.9747  70.5024 0008098 267.2877 353.7824  1.00269676 44628
BEIDOU-2 M3 (C11)       
1 38250U 12018A   24127.58725165 -.00000074  00000+0  00000+0 0  9995
2 38250  56.3657 330.7246 0020639 265.7497  94.0407  1.86231177 81578
BEIDOU-2 M4 (C12)       
1 38251U 12018B   24126.98067656 -.00000069  00000+0  00000+0 0  9997
2 38251  56.2736 330.0195 0011592 270.6323  89.2625  1.86231915 81560
BEIDOU-2 M6 (C14)       
1 38775U 12050B   24127.22701818 -.00000005  00000+0  00000+0 0  9997
2 38775  55.8820  88.5646 0014746 333.5507  26.3355  1.86231023 78932
BEIDOU-2 G6 (C02)       
1 38953U 12059A   24127.91063916 -.00000175  00000+0  00000+0 0  9998
2 38953   2.4558  80.7559 0010619 310.9022 245.4857  1.00270214 42314
BEIDOU-3S IGSO-1S (C31) 
1 40549U 15019A   24126.97790115 -.00000174  00000+0  00000+0 0  9993
2 40549  50.6517 304.6846 0037116 191.4874 173.6311  1.00258070 33338
BEIDOU-3S M2S (C58)     
1 40748U 15037A   24127.18128723 -.00000072  00000+0  00000+0 0  9995
2 40748  55.5064 328.4598 0007777 256.9817 102.9555  1.86233050 59745
BEIDOU-3S M1S (C57)     
1 40749U 15037B   24126.91467891 -.00000070  00000+0  00000+0 0  9996
2 40749  55.5100 328.4558 0004890   1.9920 358.0352  1.86232864 59740
BEIDOU-3S IGSO-2S (C56) 
1 40938U 15053A   24127.15457806 -.00000179  00000+0  00000+0 0  9996
2 40938  50.4255 267.8927 0051255 188.1931 280.6061  1.00271725 31616
BEIDOU-2 IGSO-6 (C13)   
1 41434U 16021A   24127.55578444 -.00000193  00000+0  00000+0 0  9996
2 41434  59.1196  45.7688 0048192 224.4515 250.7636  1.00278443 29744
BEIDOU-2 G7 (C03)       
1 41586U 16037A   24127.62846523 -.00000354  00000+0  00000+0 0  9994
2 41586   1.8082  69.1202 0008668 325.1990 167.4619  1.00272421 29051
BEIDOU-3 M1 (C19)       
1 43001U 17069A   24127.53005537 -.00000008  00000+0  00000+0 0  9992
2 43001  56.0328  88.6452 0012209 304.3525  55.4918  1.86231269 44236
BEIDOU-3 M2 (C20)       
1 43002U 17069B   24126.93024527  .00000000  00000+0  00000+0 0  9997
2 43002  56.0316  88.7014 0010116 323.3222  36.5719  1.86230930 44210
BEIDOU-3 M7 (C27)       
1 43107U 18003A   24127.21676700 -.00000074  00000+0  00000+0 0  9992
2 43107  54.9644 329.0679 0005150  67.5298 292.5492  1.86232363 42972
BEIDOU-3 M8 (C28)       
1 43108U 18003B   24127.15685214 -.00000073  00000+0  00000+0 0  9995
2 43108  54.9574 329.0557 0002391 270.3711  89.6261  1.86230814 42987
BEIDOU-3 M4 (C22)       
1 43207U 18018A   24127.06117377 -.00000002  00000+0  00000+0 0  9993
2 43207  55.9913  88.7515 0007347 343.3163  16.6220  1.86231165 42363
BEIDOU-3 M3 (C21)       
1 43208U 18018B   24126.59079322  .00000005  00000+0  00000+0 0  9990
2 43208  55.9908  88.7716 0010017 314.2523  45.6309  1.86231101 42355
BEIDOU-3 M9 (C29)       
1 43245U 18029A   24126.81247163 -.00000069  00000+0  00000+0 0  9999
2 43245  54.8496 326.7935 0000626  49.1935 310.8345  1.86232355 41516
BEIDOU-3 M10 (C30)      
1 43246U 18029B   24127.27915226 -.00000073  00000+0  00000+0 0  9998
2 43246  54.8466 326.8054 0004471  19.3231 340.7147  1.86232754 41512
BEIDOU-2 IGSO-7 (C16)   
1 43539U 18057A   24127.47447706 -.00000064  00000+0  00000+0 0  9999
2 43539  55.1359 169.7324 0074729 233.1000 105.5431  1.00265318 21394
BEIDOU-3 M5 (C23)       
1 43581U 18062A   24127.50155650  .00000028  00000+0  00000+0 0  9999
2 43581  54.1362 208.5543 0003829 273.3721  86.6393  1.86228486 39268
BEIDOU-3 M6 (C24)       
1 43582U 18062B   24126.83064991  .00000022  00000+0  00000+0 0  9996
2 43582  54.1359 208.5666 0004170  16.7227 343.3422  1.86229240 39255
BEIDOU-3 M12 (C26)      
1 43602U 18067A   24127.30141616  .00000029  00000+0  00000+0 0  9994
2 43602  54.2258 207.2282 0006833  23.0069 337.0801  1.86231639 38749
BEIDOU-3 M11 (C25)      
1 43603U 18067B   24126.89838421  .00000026  00000+0  00000+0 0  9992
2 43603  54.2231 207.2071 0003655  10.3433 349.7184  1.86231500 38763
BEIDOU-3 M13 (C32)      
1 43622U 18072A   24127.39587491 -.00000007  00000+0  00000+0 0  9993
2 43622  55.9622  88.2729 0008744 302.9347  56.9417  1.86231349 38285
BEIDOU-3 M14 (C33)      
1 43623U 18072B   24127.26133150 -.00000006  00000+0  00000+0 0  9998
2 43623  55.9639  88.2705 0006634 324.0461  35.8705  1.86231351 38274
BEIDOU-3 M16 (C35)      
1 43647U 18078A   24126.88740660 -.00000070  00000+0  00000+0 0  9998
2 43647  54.7459 326.8931 0007873  21.9185 338.1376  1.86232158 37774
BEIDOU-3 M15 (C34)      
1 43648U 18078B   24127.01658739 -.00000071  00000+0  00000+0 0  9991
2 43648  54.7418 326.8917 0004976  34.6566 325.3977  1.86232114 37798
BEIDOU-3 G1 (C59)       
1 43683U 18085A   24127.53231642 -.00000279  00000+0  00000+0 0  9995
2 43683   2.0901 111.1979 0004221 348.4017  96.7941  1.00264746 20326
BEIDOU-3 M17 (C36)      
1 43706U 18093A   24126.62933417  .00000021  00000+0  00000+0 0  9992
2 43706  54.2193 208.5193 0008829 279.5258  80.4246  1.86228135 37155
BEIDOU-3 M18 (C37)      
1 43707U 18093B   24127.03196747  .00000024  00000+0  00000+0 0  9999
2 43707  54.2197 208.4973 0006911 308.7162  51.2746  1.86229579 37158
BEIDOU-3 IGSO-1 (C38)   
1 44204U 19023A   24127.54336240 -.00000248  00000+0  00000+0 0  9995
2 44204  57.5840  45.6593 0018892 212.9756 280.2291  1.00261319 18609
BEIDOU-2 G8 (C01)       
1 44231U 19027A   24127.58799534 -.00000249  00000+0  00000+0 0  9993
2 44231   1.8470  73.6335 0002527 162.9340 344.5099  1.00267594 18348
BEIDOU-3 IGSO-2 (C39)   
1 44337U 19035A   24127.56675507 -.00000063  00000+0  00000+0 0  9994
2 44337  55.1711 165.6329 0033235 208.8895 171.9486  1.00253701 17936
BEIDOU-3 M24 (C46)      
1 44542U 19061A   24127.10183836  .00000025  00000+0  00000+0 0  9997
2 44542  54.4466 208.7813 0007233 351.3061   8.7338  1.86231078 31417
BEIDOU-3 M23 (C45)      
1 44543U 19061B   24127.29270313  .00000026  00000+0  00000+0 0  9996
2 44543  54.4451 208.7437 0004382 333.0799  67.1354  1.86231379 31423
BEIDOU-3 IGSO-3 (C40)   
1 44709U 19073A   24126.85023791 -.00000208  00000+0  00000+0 0  9993
2 44709  56.1237 289.1696 0037505 179.9684 179.9403  1.00262427 16717
BEIDOU-3 M22 (C44)      
1 44793U 19078A   24126.94764151 -.00000071  00000+0  00000+0 0  9991
2 44793  54.5938 326.8283 0006890  29.7342 330.3269  1.86232023 30269
BEIDOU-3 M21 (C43)      
1 44794U 19078B   24127.07753853 -.00000072  00000+0  00000+0 0  9995
2 44794  54.5673 326.8007 0004732  27.5303 332.5162  1.86232505 30278
BEIDOU-3 M19 (C41)      
1 44864U 19090A   24125.45794958  .00000020  00000+0  00000+0 0  9990
2 44864  55.8948  88.5113 0019487 283.7435 263.4500  1.86231463 29829
BEIDOU-3 M20 (C42)      
1 44865U 19090B   24127.44039135 -.00000008  00000+0  00000+0 0  9998
2 44865  55.8982  88.4779 0017377 296.2618 229.8067  1.86231449 29843
BEIDOU-3 G2 (C60)       
1 45344U 20017A   24127.20466258 -.00000143  00000+0  00000+0 0  9996
2 45344   2.2675  27.9570 0000547   9.4972 340.7876  1.00272152 15518
BEIDOU-3 G3 (C61)       
1 45807U 20040A   24127.86332537 -.00000354  00000+0  00000+0 0  9994
2 45807   0.7131  36.5969 0005122 301.2161 308.6336  1.00264939 14345
BEIDOU-3 G4             
1 56564U 23066A   24127.62959493 -.00000114  00000+0  00000+0 0  9991
2 56564   2.2266 288.2189 0004527 192.0489 131.4337  1.00271367  3658
BEIDOU-3 M25            
1 58654U 23207A   24127.16016054 -.00000005  00000+0  00000+0 0  9995
2 58654  55.0787  88.4995 0004608 297.3306  62.5848  1.86232172  2460
BEIDOU-3 M26            
1 58655U 23207B   24127.49598452 -.00000009  00000+0  00000+0 0  9993
2 58655  55.0809  88.4734 0005097 280.7687  79.1344  1.86231790  2457
